BEIDOU-3S IGSO-1S       
1 40549U 15019A   26155.86761368 -.00000162  00000+0  00000+0 0  9990
2 40549  49.2196 295.6097 0038520 191.1886 171.3228  1.00253760 40951
NAVSTAR 74 (USA 262)    
1 40730U 15033A   26155.25756365 -.00000025  00000+0  00000+0 0  9990
2 40730  53.9928 267.6197 0115056  30.1807 330.4991  2.00557000 79731
BEIDOU-3S M2S           
1 40748U 15037A   26153.28873813 -.00000070  00000+0  00000+0 0  9992
2 40748  54.8844 302.5583 0007848 262.7057  97.1823  1.86232274 73847
BEIDOU-3S M1S           
1 40749U 15037B   26154.57173103 -.00000062  00000+0  00000+0 0  9992
2 40749  54.8802 302.5027 0003703  59.9652 300.0537  1.86254987 73874
GSAT0205 (GALILEO 9)    
1 40889U 15045A   26144.30399159 -.00000014  00000+0  00000+0 0  9994
2 40889  54.9357 222.4171 0006405 263.0112  96.9692  1.67409242 66562
GSAT0206 (GALILEO 10)   
1 40890U 15045B   26153.20614353  .00000037  00000+0  00000+0 0  9995
2 40890  54.9487 222.0183 0001691 340.6304  19.4569  1.70474042 66785
BEIDOU-3S IGSO-2S       
1 40938U 15053A   26155.76900253 -.00000132  00000+0  00000+0 0  9994
2 40938  49.2418 258.9308 0064952 192.1222 174.7728  1.00262689 39231
NAVSTAR 75 (USA 265)    
1 41019U 15062A   26154.31702301 -.00000073  00000+0  00000+0 0  9993
2 41019  56.9501  31.3456 0111548 231.1831 127.8699  2.00567162 77559
GSAT-15                 
1 41028U 15065A   26156.17872442 -.00000246  00000+0  00000+0 0  9998
2 41028   0.0459 115.3735 0004193 320.5555 335.5396  1.00271324 38670
GSAT0209 (GALILEO 12)   
1 41174U 15079A   26153.37408116  .00000003  00000+0  00000+0 0  9997
2 41174  55.8190 101.6681 0005486 338.3855  21.5417  1.70473980 64524
GSAT0208 (GALILEO 11)   
1 41175U 15079B   26154.18097635  .00000008  00000+0  00000+0 0  9993
2 41175  55.8180 101.6428 0004856 341.4145  18.5225  1.70473818 64950
IRNSS-1E                
1 41241U 16003A   26155.65845063 -.00000298  00000+0  00000+0 0  9996
2 41241  33.2080  59.9318 0017864 179.9261   2.0458  1.00270961 37955
NAVSTAR 76 (USA 266)    
1 41328U 16007A   26155.90285179  .00000004  00000+0  00000+0 0  9994
2 41328  55.5169  89.9466 0096310 247.3906 111.5783  2.00552419 75593
COSMOS 2514 [GLONASS-M] 
1 41330U 16008A   26155.14588954 -.00000038  00000+0  00000+0 0  9999
2 41330  65.0300 313.4541 0010797 197.2599 162.6937  2.13102640 80342
BEIDOU-2 IGSO-6         
1 41434U 16021A   26155.65446394 -.00000144  00000+0  00000+0 0  9994
2 41434  60.2080  38.1652 0057273 231.5153 312.6127  1.00262242 37352
IRNSS-1G                
1 41469U 16027A   26156.23227824 -.00000322  00000+0  00000+0 0  9996
2 41469   5.1688  97.7493 0007444 351.8964  17.2289  1.00272255 37067
GSAT0211 (GALILEO 14)   
1 41549U 16030A   26153.13186841  .00000037  00000+0  00000+0 0  9990
2 41549  55.0991 222.1092 0002706 330.2266  29.8517  1.70474145 62417
GSAT0210 (GALILEO 13)   
1 41550U 16030B   26153.38914289  .00000038  00000+0  00000+0 0  9995
2 41550  55.0982 222.1002 0003345 232.8664 127.1968  1.70474245 62412
BEIDOU-2 G7             
1 41586U 16037A   26156.29990598 -.00000341  00000+0  00000+0 0  9999
2 41586   1.6906  69.2214 0007337   0.8617  42.1819  1.00271129  6772
EUTELSAT 117 WEST B     
1 41589U 16038B   26155.96963913  .00000001  00000+0  00000+0 0  9999
2 41589   0.0098 143.2985 0000351 200.9234 141.2528  1.00267843 36549
GSAT0207 (GALILEO 15)   
1 41859U 16069A   26154.84050470  .00000010  00000+0  00000+0 0  9994
2 41859  55.4909 101.4554 0005523 326.1411  33.7823  1.70473800 59172
GSAT0212 (GALILEO 16)   
1 41860U 16069B   26154.10735617  .00000006  00000+0  00000+0 0  9993
2 41860  55.4882 101.4709 0004693 352.8898   7.0579  1.70474020 59412
GSAT0213 (GALILEO 17)   
1 41861U 16069C   26155.06121514  .00000011  00000+0  00000+0 0  9991
2 41861  55.4901 101.4524 0005284 311.4000  48.5147  1.70474334 59298
GSAT0214 (GALILEO 18)   
1 41862U 16069D   26155.20740261  .00000012  00000+0  00000+0 0  9995
2 41862  55.4897 101.4409 0004328 318.0236  41.9042  1.70474030 59426
SES-15                  
1 42709U 17026A   26155.62084726  .00000072  00000+0  00000+0 0  9999
2 42709   0.0208 330.5745 0001118  62.2958 314.5488  1.00270523  7307
QZS-2 (MICHIBIKI-2)     
1 42738U 17028A   26155.53920274 -.00000155  00000+0  00000+0 0  9993
2 42738  39.4467 243.3410 0760663 269.1234  75.7690  1.00287296  7490
QZS-3 (MICHIBIKI-3)     
1 42917U 17048A   26156.23193157 -.00000335  00000+0  00000+0 0  9994
2 42917   0.0599 192.8172 0002844 250.7952  20.5890  1.00271772 32136
COSMOS 2522 [GLONASS-M] 
1 42939U 17055A   26153.10670400  .00000070  00000+0  00000+0 0  9995
2 42939  64.0774 192.3978 0010513 239.6203 120.3566  2.13102000 67657
QZS-4 (MICHIBIKI-4)     
1 42965U 17062A   26155.37249061 -.00000321  00000+0  00000+0 0  9998
2 42965  40.1160 343.6465 0744830 271.5298 269.7386  1.00255482 31676
BEIDOU-3 M1             
1 43001U 17069A   26154.17216962 -.00000047  00000+0  00000+0 0  9993
2 43001  56.6802  63.5462 0010988 322.8925  37.0519  1.86231656 58343
BEIDOU-3 M2             
1 43002U 17069B   26155.72176296 -.00000040  00000+0  00000+0 0  9994
2 43002  56.6813  63.5305 0009449 347.8402  12.1629  1.86231005 58365
