OBJECT_NAME,OBJECT_ID,EPOCH,MEAN_MOTION,ECCENTRICITY,INCLINATION,RA_OF_ASC_NODE,ARG_OF_PERICENTER,MEAN_ANOMALY,EPHEMERIS_TYPE,CLASSIFICATION_TYPE,NORAD_CAT_ID,ELEMENT_SET_NO,REV_AT_EPOCH,BSTAR,MEAN_MOTION_DOT,MEAN_MOTION_DDOT
BEIDOU-3S IGSO-1S (C31),2015-019A,2026-06-04T20:49:21.821952,1.00253760,.003852,49.2196,295.6097,191.1886,171.3228,0,U,40549,999,4095,0,-.162E-5,0
GPS BIIF-10 (PRN 08),2015-033A,2026-06-04T06:10:53.499360,2.00557000,.01150562,53.9928,267.6197,30.1807,330.4991,0,U,40730,999,7973,0,-.25E-6,0
BEIDOU-3S M2S (C58),2015-037A,2026-06-02T06:55:46.974432,1.86232274,.00078489,54.8844,302.5583,262.7057,97.1823,0,U,40748,999,7384,0,-.7E-6,0
BEIDOU-3S M1S (C57),2015-037B,2026-06-03T13:43:17.560992,1.86254987,.00037034,54.8802,302.5027,59.9652,300.0537,0,U,40749,999,7387,0,-.62E-6,0
GSAT0205 (GALILEO 9),2015-045A,2026-05-24T07:17:44.873376,1.67409242,.00064058,54.9357,222.4171,263.0112,96.9692,0,U,40889,999,6656,0,-.14E-6,0
GSAT0206 (GALILEO 10),2015-045B,2026-06-02T04:56:50.800992,1.70474042,.0001691,54.9487,222.0183,340.6304,19.4569,0,U,40890,999,6678,0,.37E-6,0
BEIDOU-3S IGSO-2S (C56),2015-053A,2026-06-04T18:27:21.818592,1.00262689,.00649525,49.2418,258.9308,192.1222,174.7728,0,U,40938,999,3923,0,-.132E-5,0
GPS BIIF-11 (PRN 10),2015-062A,2026-06-03T07:36:30.788064,2.00567162,.01115486,56.9501,31.3456,231.1831,127.8699,0,U,41019,999,7755,0,-.73E-6,0
GSAT-15 (GAGAN/PRN 139),2015-065A,2026-06-05T04:17:21.789888,1.00271324,.00041934,0.0459,115.3735,320.5555,335.5396,0,U,41028,999,3867,0,-.246E-5,0
GSAT0209 (GALILEO 12),2015-079A,2026-06-02T08:58:40.612224,1.70473980,.00054869,55.8190,101.6681,338.3855,21.5417,0,U,41174,999,6452,0,.3E-7,0
GSAT0208 (GALILEO 11),2015-079B,2026-06-03T04:20:36.356640,1.70473818,.00048566,55.8180,101.6428,341.4145,18.5225,0,U,41175,999,6495,0,.8E-7,0
IRNSS-1E,2016-003A,2026-06-04T15:48:10.134432,1.00270961,.00178641,33.2080,59.9318,179.9261,2.0458,0,U,41241,999,3795,0,-.298E-5,0
GPS BIIF-12 (PRN 32),2016-007A,2026-06-04T21:40:06.394656,2.00552419,.00963109,55.5169,89.9466,247.3906,111.5783,0,U,41328,999,7559,0,.4E-7,0
COSMOS 2514 (751),2016-008A,2026-06-04T03:30:04.856256,2.13102640,.00107977,65.0300,313.4541,197.2599,162.6937,0,U,41330,999,8034,0,-.38E-6,0
BEIDOU-2 IGSO-6 (C13),2016-021A,2026-06-04T15:42:25.684416,1.00262242,.00572736,60.2080,38.1652,231.5153,312.6127,0,U,41434,999,3735,0,-.144E-5,0
IRNSS-1G,2016-027A,2026-06-05T05:34:28.839936,1.00272255,.0007444,5.1688,97.7493,351.8964,17.2289,0,U,41469,999,3706,0,-.322E-5,0
GSAT0211 (GALILEO 14),2016-030A,2026-06-02T03:09:53.430624,1.70474145,.0002706,55.0991,222.1092,330.2266,29.8517,0,U,41549,999,6241,0,.37E-6,0
GSAT0210 (GALILEO 13),2016-030B,2026-06-02T09:20:21.945696,1.70474245,.00033459,55.0982,222.1002,232.8664,127.1968,0,U,41550,999,6241,0,.38E-6,0
BEIDOU-2 G7 (C03),2016-037A,2026-06-05T07:11:51.876672,1.00271129,.00073373,1.6906,69.2214,0.8617,42.1819,0,U,41586,999,677,0,-.341E-5,0
EUTELSAT 117 WEST B (WAAS/PRN 131),2016-038B,2026-06-04T23:16:16.820832,1.00267843,.00003511,0.0098,143.2985,200.9234,141.2528,0,U,41589,999,3654,0,.1E-7,0
GSAT0207 (GALILEO 15),2016-069A,2026-06-03T20:10:19.606080,1.70473800,.0005523,55.4909,101.4554,326.1411,33.7823,0,U,41859,999,5917,0,.1E-6,0
GSAT0212 (GALILEO 16),2016-069B,2026-06-03T02:34:35.573088,1.70474020,.00046934,55.4882,101.4709,352.8898,7.0579,0,U,41860,999,5941,0,.6E-7,0
GSAT0213 (GALILEO 17),2016-069C,2026-06-04T01:28:08.988096,1.70474334,.00052846,55.4901,101.4524,311.4000,48.5147,0,U,41861,999,5929,0,.11E-6,0
GSAT0214 (GALILEO 18),2016-069D,2026-06-04T04:58:39.585504,1.70474030,.00043281,55.4897,101.4409,318.0236,41.9042,0,U,41862,999,5942,0,.12E-6,0
SES-15 (WAAS/PRN 133),2017-026A,2026-06-04T14:54:01.203264,1.00270523,.00011187,0.0208,330.5745,62.2958,314.5488,0,U,42709,999,730,0,.72E-6,0
QZS-2 (QZSS/PRN 194),2017-028A,2026-06-04T12:56:27.116736,1.00287296,.0760663,39.4467,243.3410,269.1234,75.7690,0,U,42738,999,749,0,-.155E-5,0
QZS-3 (QZSS/PRN 199),2017-048A,2026-06-05T05:33:58.887648,1.00271772,.00028443,0.0599,192.8172,250.7952,20.5890,0,U,42917,999,3213,0,-.335E-5,0
COSMOS 2522 (752),2017-055A,2026-06-02T02:33:39.225600,2.13102000,.00105132,64.0774,192.3978,239.6203,120.3566,0,U,42939,999,6765,0,.7E-6,0
QZS-4 (QZSS/PRN 195),2017-062A,2026-06-04T08:56:23.188704,1.00255482,.074483,40.1160,343.6465,271.5298,269.7386,0,U,42965,999,3167,0,-.321E-5,0
BEIDOU-3 M1 (C19),2017-069A,2026-06-03T04:07:55.455168,1.86231656,.00109882,56.6802,63.5462,322.8925,37.0519,0,U,43001,999,5834,0,-.47E-6,0
BEIDOU-3 M2 (C20),2017-069B,2026-06-04T17:19:20.319744,1.86231005,.0009449,56.6813,63.5305,347.8402,12.1629,0,U,43002,999,5836,0,-.4E-6,0
